2024-149AU              
1 60510U 24149AU  25126.76604068  .00012817  00000+0  47193-3 0  9990
2 60510  97.4065 205.3709 0003101 305.2564  54.8385 15.27972904 40026
FLOCK 4BE-2             
1 60511U 24149AV  25126.75795154  .00013502  00000+0  47382-3 0  9999
2 60511  97.4135 205.9244 0002355 297.5999  62.5001 15.29541783 40042
FLOCK 4BE-13            
1 60512U 24149AW  25126.76683908  .00011911  00000+0  42838-3 0  9997
2 60512  97.4047 205.4537 0003802 288.3062  71.7764 15.28763940 40039
FLOCK 4BE-27            
1 60513U 24149AX  25127.18125957  .00009065  00000+0  35596-3 0  9990
2 60513  97.4145 205.6753 0003216 315.9789  44.1192 15.25931624 40068
FLOCK 4BE-9             
1 60514U 24149AY  25127.15525802  .00011677  00000+0  43244-3 0  9992
2 60514  97.4118 205.9361 0002237 310.7903  49.3142 15.27807831 40088
FLOCK 4BE-8             
1 60515U 24149AZ  25126.79841458  .00010536  00000+0  39501-3 0  9994
2 60515  97.4065 205.3181 0003836 306.4771  53.6115 15.27425680 40025
FLOCK 4BE-6             
1 60516U 24149BA  25127.20991461  .00010680  00000+0  40368-3 0  9995
2 60516  97.4124 205.8869 0002832 312.4053  47.6946 15.27155409 40085
FLOCK 4BE-14            
1 60517U 24149BB  25126.79805975  .00010825  00000+0  40127-3 0  9997
2 60517  97.4048 205.4564 0004236 306.0187  54.0659 15.27792028 40038
FLOCK 4BE-1             
1 60518U 24149BC  25126.74337330  .00011155  00000+0  40539-3 0  9992
2 60518  97.4105 205.7033 0003595 302.9246  57.1647 15.28438948 40035
FLOCK 4BE-28            
1 60519U 24149BD  25126.76416131  .00013016  00000+0  45970-3 0  9994
2 60519  97.4073 205.7057 0004520 308.5023  51.5811 15.29332855 40043
IPERDRONE.0             
1 60520U 24149BE  25126.73215741  .00020407  00000+0  61959-3 0  9994
2 60520  97.4099 206.5608 0003677 270.4579  89.6242 15.34109928 40093
2024-149BF              
1 60521U 24149BF  25126.77998611  .00021813  00000+0  65253-3 0  9996
2 60521  97.4113 206.8648 0003581 296.0686  64.0188 15.34565875 40111
CONNECTA IOT-2          
1 60522U 24149BG  25127.17862894  .00006946  00000+0  27842-3 0  9997
2 60522  97.4142 205.6604 0005204 319.1684  40.9164 15.25326377 40065
PTD-R (TYVAK-0127)      
1 60523U 24149BH  25127.21088713  .00033261  00000+0  86455-3 0  9998
2 60523  97.4064 207.7958 0004200 280.8302  79.2471 15.38860751 40227
CONNECTA IOT-4          
1 60524U 24149BJ  25126.77529704  .00014424  00000+0  53496-3 0  9998
2 60524  97.4108 205.3108 0005847 303.4382  56.6298 15.27696845 40018
ORESAT0.5               
1 60525U 24149BK  25127.19641081  .00012759  00000+0  44251-3 0  9997
2 60525  97.4044 206.2395 0005615 296.1649  63.9014 15.29926335 40124
DEIMOS                  
1 60526U 24149BL  25127.15697842  .00013456  00000+0  47084-3 0  9992
2 60526  97.4103 206.3461 0005789 303.1886  56.8798 15.29622996 40115
CUAVA-2                 
1 60527U 24149BM  25126.73520578  .00010693  00000+0  42453-3 0  9992
2 60527  97.4067 205.0884 0006747 301.4458  58.6120 15.25502043 40004
ERNST                   
1 60528U 24149BN  25126.74298261  .00011748  00000+0  44105-3 0  9993
2 60528  97.4130 205.4387 0005991 312.0848  47.9881 15.27340994 40012
GAINDESAT-1A            
1 60529U 24149BP  25126.90260292  .00037399  00000+0  90277-3 0  9996
2 60529  97.4097 208.0922 0004753 278.1730  81.8977 15.41092383 40202
TORO                    
1 60530U 24149BQ  25127.25806145  .00002293  00000+0  21915-3 0  9998
2 60530  97.7157 204.1504 0001177 100.2065 259.9288 14.94217589 39294
HYPSO-2                 
1 60531U 24149BR  25126.59599928  .00003998  00000+0  36537-3 0  9992
2 60531  97.7165 203.7982 0000787 126.2637 233.8657 14.95578171 39219
LEMU NGE                
1 60532U 24149BS  25126.73143946  .00003370  00000+0  31494-3 0  9995
2 60532  97.7188 203.8598 0000463  62.6735 297.4532 14.94805531 39223
LEMUR-2-STELLA          
1 60533U 24149BT  25126.73494440  .00010729  00000+0  83624-3 0  9992
2 60533  97.7085 205.0577 0003825 133.6653 226.4889 15.01368363 39317
SATELIOT_2              
1 60534U 24149BU  25127.16234741  .00003429  00000+0  32564-3 0  9993
2 60534  97.7209 204.2015 0001873  88.9998 271.1437 14.94162161 39291
NIGHTJAR                
1 60535U 24149BV  25127.16364263  .00004018  00000+0  36504-3 0  9990
2 60535  97.7204 204.5655 0002076  82.4230 277.7227 14.95812144 82116
LEMUR-2-MARHISYAM       
1 60536U 24149BW  25126.75944085  .00011474  00000+0  89823-3 0  9997
2 60536  97.7177 204.9768 0003494  20.3868 339.7494 15.01183145 39317
SATELIOT_4              
1 60537U 24149BX  25126.79589975  .00002372  00000+0  22481-3 0  9999
2 60537  97.7096 203.6226 0001234 354.7531   5.3676 14.94532993 39233
PICO-02A021             
1 60538U 24149BY  25126.47081180  .00006858  00000+0  58572-3 0  9993
2 60538  97.7163 204.3217 0001311  33.1871 326.9433 14.97983706 38741
ICEYE-X43               
1 60539U 24149BZ  25126.77652575  .00004393  00000+0  39120-3 0  9999
2 60539  97.7141 204.2159 0003045  17.9767 342.1562 14.96546779 39267
HAWK-10A                
1 60540U 24149CA  25126.79824959  .00002345  00000+0  22130-3 0  9998
2 60540  97.7240 204.2707 0003525  14.1167 346.0152 14.94701884 39248
UMBRA-09                
1 60541U 24149CB  25126.81292811  .00012953  00000+0  93486-3 0  9996
2 60541  97.7245 206.0697 0000905 221.2571 138.8586 15.04241511 39371
QPS-SAR-8 (AMATERU-IV)  
1 60542U 24149CC  25127.17612362  .00006387  00000+0  53564-3 0  9991
2 60542  97.7182 205.1833 0003823  30.1789 329.9653 14.98714652 39353
ARCTIC WEATHER SATELLITE
1 60543U 24149CD  25127.20969559  .00001490  00000+0  16118-3 0  9993
2 60543  97.7191 203.2084 0004012  88.3974 271.7703 14.89735800 39227
CAPELLA-15 (ACADIA-5)   
1 60544U 24149CE  25126.75080535  .00009847  00000+0  96550-3 0  9993
2 60544  97.7131 203.7848 0004028 350.8558   9.2587 14.92425961 39230
HAWK-10B                
1 60545U 24149CF  25126.79813458  .00002028  00000+0  19212-3 0  9990
2 60545  97.7168 204.0158 0005780  24.7255 335.4241 14.94700614 39241
ICEYE-X39               
1 60546U 24149CG  25126.80819632  .00004359  00000+0  38818-3 0  9995
2 60546  97.7125 204.3306 0004046  19.4803 340.6572 14.96545521 39271
UMBRA-10                
1 60547U 24149CH  25126.74639985  .00013216  00000+0  95380-3 0  9999
2 60547  97.7256 205.9939 0000831 139.1398 220.9890 15.04236539 39373
ICEYE-X33               
1 60548U 24149CJ  25127.25395261  .00005065  00000+0  43392-3 0  9992
2 60548  97.7176 205.2482 0004924  19.6306 340.5105 14.97982227 39369
ICEYE-X40               
1 60549U 24149CK  25126.78420820  .00001252  00000+0  11626-3 0  9999
2 60549  97.7156 204.4154 0005502  18.6047 341.5374 14.96171603 39275
SATELIOT_1              
1 60550U 24149CL  25126.74295230  .00002995  00000+0  27288-3 0  9998
2 60550  97.7091 204.1398 0006560   8.7955 351.3380 14.95874953 39267
BRO-14                  
1 60551U 24149CM  25127.25446412  .00001157  00000+0  11165-3 0  9992
2 60551  97.7221 204.7898 0007348  26.1685 333.9906 14.94771914 39322
SATELIOT_3              
1 60552U 24149CN  25126.75152391  .00003578  00000+0  32111-3 0  9990
2 60552  97.7157 204.5048 0007807  18.4028 341.7474 14.96346163 39278
BRO-15                  
1 60553U 24149CP  25126.79581987  .00000940  00000+0  91095-4 0  9999
2 60553  97.7151 204.2368 0008398  16.3618 343.7872 14.95039883 39263
UM5-RIBAT               
1 60554U 24149CQ  25127.17189657  .00004698  00000+0  40680-3 0  9998
2 60554  97.7121 205.0083 0007974   8.7627 351.3733 14.97594259 39354
UM5-EOSAT               
1 60555U 24149CR  25126.78701286  .00003710  00000+0  31893-3 0  9993
2 60555  97.7184 204.9640 0008388  15.0631 345.0840 14.98002038 39301
LASARSAT                
1 62391U 24247Q   25126.32731196  .00018680  00000+0  74644-3 0  9998
2 62391  44.9888 346.3658 0008306 207.6687 152.3753 15.24882484 20837
CROCUBE                 
1 62394U 24247T   25126.98030167  .00017444  00000+0  69417-3 0  9992
2 62394  44.9865 342.7812 0008895 209.9681 150.0692 15.25058792 20935
